NORAD_CAT_ID,OBJECT_NAME,OBJECT_TYPE,EPOCH,MEAN_MOTION,ECCENTRICITY,INCLINATION,RA_OF_ASC_NODE,ARG_OF_PERICENTER,MEAN_ANOMALY,BSTAR,MEAN_MOTION_DOT,MEAN_MOTION_DDOT,TLE_LINE0,TLE_LINE1,TLE_LINE2,SEMIMAJOR_AXIS,PERIOD,APOGEE,PERIGEE,DECAYED
49744.0,STARLINK-3231,PAYLOAD,2024-01-14 03:40:59,15.08840277,0.0002118,53.2159,75.428,39.0407,321.0737,0.00023077,3.386e-05,0.0,0 STARLINK-3231,1 49744U 21115W   24014.15346467  .00003386  00000-0  23077-3 0  9997,2 49744  53.2159  75.4280 0002118  39.0407 321.0737 15.08840277118056,6917.88,95.438,541.21,538.279,0.0
49744.0,STARLINK-3231,PAYLOAD,2024-01-14 11:37:54,15.0884935,0.0001485,53.2179,73.9341,71.0637,289.0516,0.00021012,3.059e-05,0.0,0 STARLINK-3231,1 49744U 21115W   24014.48465562  .00003059  00000-0  21012-3 0  9995,2 49744  53.2179  73.9341 0001485  71.0637 289.0516 15.08849350118101,6917.852,95.437,540.744,538.69,0.0
49744.0,STARLINK-3231,PAYLOAD,2024-01-15 03:31:46,15.0884629,0.000207,53.2174,70.9684,83.3514,276.7713,9.7464e-05,1.264e-05,0.0,0 STARLINK-3231,1 49744U 21115W   24015.14706075  .00001264  00000-0  97464-4 0  9997,2 49744  53.2174  70.9684 0002070  83.3514 276.7713 15.08846290118207,6917.861,95.437,541.158,538.294,0.0
49744.0,STARLINK-3231,PAYLOAD,2024-01-15 09:53:18,15.08848181,0.0001675,53.2166,69.7751,84.1745,275.9438,9.1622e-05,1.171e-05,0.0,0 STARLINK-3231,1 49744U 21115W   24015.41201775  .00001171  00000-0  91622-4 0  9991,2 49744  53.2166  69.7751 0001675  84.1745 275.9438 15.08848181117131,6917.855,95.437,540.879,538.562,0.0
49744.0,STARLINK-3231,PAYLOAD,2024-01-16 03:22:33,15.08835336,0.000162,53.2174,66.5048,70.6241,289.4926,4.0974e-05,3.64e-06,0.0,0 STARLINK-3231,1 49744U 21115W   24016.14066768  .00000364  00000-0  40974-4 0  9990,2 49744  53.2174  66.5048 0001620  70.6241 289.4926 15.08835336118350,6917.895,95.438,540.88,538.639,0.0
49744.0,STARLINK-3231,PAYLOAD,2024-01-16 09:44:06,15.08833767,0.0001605,53.2167,65.313,87.5318,272.5858,2.7803e-05,1.54e-06,0.0,0 STARLINK-3231,1 49744U 21115W   24016.40562979  .00000154  00000-0  27803-4 0  9997,2 49744  53.2167  65.3130 0001605  87.5318 272.5858 15.08833767117280,6917.899,95.438,540.875,538.654,0.0
49744.0,STARLINK-3231,PAYLOAD,2024-01-17 09:34:52,15.08847818,0.0001672,53.2178,60.8535,91.5014,268.6169,0.00022511,3.297e-05,0.0,0 STARLINK-3231,1 49744U 21115W   24017.39922237  .00003297  00000-0  22511-3 0  9994,2 49744  53.2178  60.8535 0001672  91.5014 268.6169 15.08847818118546,6917.856,95.437,540.878,538.565,0.0
49744.0,STARLINK-3231,PAYLOAD,2024-01-18 03:04:07,15.08834973,0.0001528,53.2165,57.5791,93.2605,266.8561,5.2077e-05,5.41e-06,0.0,0 STARLINK-3231,1 49744U 21115W   24018.12786876  .00000541  00000-0  52077-4 0  9993,2 49744  53.2165  57.5791 0001528  93.2605 266.8561 15.08834973118650,6917.896,95.438,540.818,538.704,0.0
49744.0,STARLINK-3231,PAYLOAD,2024-01-18 07:50:17,15.08838366,0.000165,53.216,56.6893,82.5351,277.5828,9.3361e-05,1.198e-05,0.0,0 STARLINK-3231,1 49744U 21115W   24018.32658828  .00001198  00000-0  93361-4 0  9990,2 49744  53.2160  56.6893 0001650  82.5351 277.5828 15.08838366117578,6917.885,95.438,540.892,538.609,0.0
49744.0,STARLINK-3231,PAYLOAD,2024-01-19 07:41:04,15.0884186,0.0001699,53.2165,52.233,80.3783,279.7401,-7.9206e-05,-1.549e-05,0.0,0 STARLINK-3231,1 49744U 21115W   24019.32018789 -.00001549  00000-0 -79206-4 0  9991,2 49744  53.2165  52.2330 0001699  80.3783 279.7401 15.08841860118833,6917.875,95.437,540.915,538.564,0.0
49744.0,STARLINK-3231,PAYLOAD,2024-01-20 09:07:15,15.08834862,0.0001679,53.2166,47.4729,76.0758,284.0421,-6.6811e-05,-1.351e-05,0.0,0 STARLINK-3231,1 49744U 21115W   24020.38004247 -.00001351  00000-0 -66811-4 0  9992,2 49744  53.2166  47.4729 0001679  76.0758 284.0421 15.08834862118996,6917.896,95.438,540.923,538.6,0.0
49744.0,STARLINK-3231,PAYLOAD,2024-01-20 23:25:43,15.08838635,0.0001642,53.2165,44.7937,79.1116,281.0061,0.00013519,1.864e-05,0.0,0 STARLINK-3231,1 49744U 21115W   24020.97619708  .00001864  00000-0  13519-3 0  9994,2 49744  53.2165  44.7937 0001642  79.1116 281.0061 15.08838635119088,6917.885,95.438,540.885,538.614,0.0
49744.0,STARLINK-3231,PAYLOAD,2024-01-21 05:47:15,15.0884981,0.0001593,53.2174,43.6071,78.8313,281.2858,0.0002197,3.211e-05,0.0,0 STARLINK-3231,1 49744U 21115W   24021.24114934  .00003211  00000-0  21970-3 0  9994,2 49744  53.2174  43.6071 0001593  78.8313 281.2858 15.08849810118010,6917.85,95.437,540.817,538.613,0.0
49744.0,STARLINK-3231,PAYLOAD,2024-01-21 10:33:24,15.08857766,0.000168,53.2166,42.7107,101.2117,258.9064,0.00047305,7.252e-05,0.0,0 STARLINK-3231,1 49744U 21115W   24021.43986806  .00007252  00000-0  47305-3 0  9999,2 49744  53.2166  42.7107 0001680 101.2117 258.9064 15.08857766119156,6917.826,95.436,540.853,538.529,0.0
49744.0,STARLINK-3231,PAYLOAD,2024-01-22 00:51:53,15.08840034,0.0001572,53.2166,40.0372,82.0275,278.0896,0.00010803,1.432e-05,0.0,0 STARLINK-3231,1 49744U 21115W   24022.03603763  .00001432  00000-0  10803-3 0  9991,2 49744  53.2166  40.0372 0001572  82.0275 278.0896 15.08840034119248,6917.88,95.438,540.833,538.658,0.0
49744.0,STARLINK-3231,PAYLOAD,2024-01-22 05:38:02,15.08842181,0.0001834,53.2173,39.1423,116.6696,243.4484,8.0155e-05,9.88e-06,0.0,0 STARLINK-3231,1 49744U 21115W   24022.23475448  .00000988  00000-0  80155-4 0  9993,2 49744  53.2173  39.1423 0001834 116.6696 243.4484 15.08842181118168,6917.874,95.437,541.007,538.47,0.0
49744.0,STARLINK-3231,PAYLOAD,2024-01-22 08:48:49,15.08846647,0.0001634,53.2165,38.5489,95.6103,264.5076,0.0002114,3.079e-05,0.0,0 STARLINK-3231,1 49744U 21115W   24022.36723504  .00003079  00000-0  21140-3 0  9998,2 49744  53.2165  38.5489 0001634  95.6103 264.5076 15.08846647118185,6917.86,95.437,540.855,538.595,0.0
49744.0,STARLINK-3231,PAYLOAD,2024-01-23 07:04:12,15.08848096,0.0001696,53.2162,34.3861,94.9832,265.1353,0.00028432,4.241e-05,0.0,0 STARLINK-3231,1 49744U 21115W   24023.29459345  .00004241  00000-0  28432-3 0  9993,2 49744  53.2162  34.3861 0001696  94.9832 265.1353 15.08848096118320,6917.856,95.437,540.894,538.547,0.0
49744.0,STARLINK-3231,PAYLOAD,2024-01-24 03:44:13,15.08840872,0.0001837,53.2165,30.5212,78.4916,281.6283,0.00012557,1.711e-05,0.0,0 STARLINK-3231,1 49744U 21115W   24024.15571721  .00001711  00000-0  12557-3 0  9992,2 49744  53.2165  30.5212 0001837  78.4916 281.6283 15.08840872119564,6917.878,95.437,541.014,538.472,0.0
49744.0,STARLINK-3231,PAYLOAD,2024-01-24 06:55:00,15.08833708,0.0001773,53.2172,29.9241,88.1383,271.9812,0.00036754,5.565e-05,0.0,0 STARLINK-3231,1 49744U 21115W   24024.28820186  .00005565  00000-0  36754-3 0  9994,2 49744  53.2172  29.9241 0001773  88.1383 271.9812 15.08833708118470,6917.9,95.438,540.991,538.538,0.0
49744.0,STARLINK-3231,PAYLOAD,2024-01-25 06:45:47,15.08841923,0.0002026,53.2182,25.4656,109.629,250.4921,0.00012835,1.755e-05,0.0,0 STARLINK-3231,1 49744U 21115W   24025.28179618  .00001755  00000-0  12835-3 0  9993,2 49744  53.2182  25.4656 0002026 109.6290 250.4921 15.08841923119731,6917.875,95.437,541.141,538.338,0.0
49744.0,STARLINK-3231,PAYLOAD,2024-01-26 03:25:47,15.08854473,0.0002008,53.2184,21.6008,114.5049,245.6153,0.00027595,4.108e-05,0.0,0 STARLINK-3231,1 49744U 21115W   24026.14290549  .00004108  00000-0  27595-3 0  9990,2 49744  53.2184  21.6008 0002008 114.5049 245.6153 15.08854473119860,6917.836,95.437,541.09,538.312,0.0
49744.0,STARLINK-3231,PAYLOAD,2024-01-26 05:01:10,15.08856359,0.000198,53.2183,21.3031,112.3313,247.7889,0.00030264,4.534e-05,0.0,0 STARLINK-3231,1 49744U 21115W   24026.20914455  .00004534  00000-0  30264-3 0  9996,2 49744  53.2183  21.3031 0001980 112.3313 247.7889 15.08856359118762,6917.83,95.437,541.065,538.326,0.0
49744.0,STARLINK-3231,PAYLOAD,2024-01-27 03:16:34,15.0884055,0.0001765,53.2176,17.139,105.5521,254.5666,-5.2327e-05,-1.121e-05,0.0,0 STARLINK-3231,1 49744U 21115W   24027.13651185 -.00001121  00000-0 -52327-4 0  9993,2 49744  53.2176  17.1390 0001765 105.5521 254.5666 15.08840550120017,6917.879,95.438,540.965,538.523,0.0
49744.0,STARLINK-3231,PAYLOAD,2024-01-27 08:02:44,15.08836422,0.0001568,53.2172,16.2461,95.7903,264.3268,-0.00010727,-1.995e-05,0.0,0 STARLINK-3231,1 49744U 21115W   24027.33523454 -.00001995  00000-0 -10727-3 0  9998,2 49744  53.2172  16.2461 0001568  95.7903 264.3268 15.08836422118935,6917.891,95.438,540.841,538.672,0.0
49744.0,STARLINK-3231,PAYLOAD,2024-01-28 04:42:45,15.08839227,0.0001631,53.2172,12.3781,95.1765,264.9414,-0.0001018,-1.908e-05,0.0,0 STARLINK-3231,1 49744U 21115W   24028.19635564 -.00001908  00000-0 -10180-3 0  9996,2 49744  53.2172  12.3781 0001631  95.1765 264.9414 15.08839227120172,6917.883,95.438,540.876,538.619,0.0
49744.0,STARLINK-3231,PAYLOAD,2024-01-28 07:53:32,15.08825927,0.0001913,53.2183,11.782,99.5769,260.5439,0.00053468,8.228e-05,0.0,0 STARLINK-3231,1 49744U 21115W   24028.32884378  .00008228  00000-0  53468-3 0  9996,2 49744  53.2183  11.7820 0001913  99.5769 260.5439 15.08825927120199,6917.923,95.438,541.112,538.465,0.0
49744.0,STARLINK-3231,PAYLOAD,2024-01-29 22:02:47,15.08842325,0.000191,53.2187,4.6529,74.2441,285.8761,0.00010937,1.453e-05,0.0,0 STARLINK-3231,1 49744U 21115W   24029.91860430  .00001453  00000-0  10937-3 0  9992,2 49744  53.2187   4.6529 0001910  74.2441 285.8761 15.08842325119326,6917.873,95.437,541.06,538.417,0.0
49744.0,STARLINK-3231,PAYLOAD,2024-01-30 04:24:19,15.08842869,0.000192,53.2187,3.4631,74.2847,285.8357,0.00012589,1.716e-05,0.0,0 STARLINK-3231,1 49744U 21115W   24030.18356438  .00001716  00000-0  12589-3 0  9998,2 49744  53.2187   3.4631 0001920  74.2847 285.8357 15.08842869120470,6917.872,95.437,541.065,538.408,0.0
49744.0,STARLINK-3231,PAYLOAD,2024-01-31 04:15:06,15.08845581,0.0001756,53.2182,359.0025,80.4862,279.6329,0.0001273,1.739e-05,0.0,0 STARLINK-3231,1 49744U 21115W   24031.17716169  .00001739  00000-0  12730-3 0  9992,2 49744  53.2182 359.0025 0001756  80.4862 279.6329 15.08845581119512,6917.863,95.437,540.943,538.514,0.0
